CCSDS_OMM_VERS = 2.0
CREATION_DATE  = 
ORIGINATOR     = 

OBJECT_NAME    = STARLINK-35856
OBJECT_ID      = 2025-293L
CENTER_NAME    = EARTH
REF_FRAME      = TEME
TIME_SYSTEM    = UTC
MEAN_ELEMENT_THEORY = SGP/SGP4

EPOCH          = 2025-12-23T22:00:01.999584
MEAN_MOTION    = 15.82294306
ECCENTRICITY   = .00037328
INCLINATION    = 69.9928
RA_OF_ASC_NODE = 291.3699
ARG_OF_PERICENTER = 262.5998
MEAN_ANOMALY   = 41.7849

EPHEMERIS_TYPE = 0
CLASSIFICATION_TYPE = U
NORAD_CAT_ID   = 67013
ELEMENT_SET_NO = 999
REV_AT_EPOCH   = 191
BSTAR          = -.9275292E-2
MEAN_MOTION_DOT = -.1670729E-1
MEAN_MOTION_DDOT = 0

CCSDS_OMM_VERS = 2.0
CREATION_DATE  = 
ORIGINATOR     = 

OBJECT_NAME    = STARLINK-36207
OBJECT_ID      = 2025-293M
CENTER_NAME    = EARTH
REF_FRAME      = TEME
TIME_SYSTEM    = UTC
MEAN_ELEMENT_THEORY = SGP/SGP4

EPOCH          = 2025-12-23T22:00:01.999584
MEAN_MOTION    = 15.82276493
ECCENTRICITY   = .00038871
INCLINATION    = 69.9933
RA_OF_ASC_NODE = 291.3675
ARG_OF_PERICENTER = 264.6641
MEAN_ANOMALY   = 42.1872

EPHEMERIS_TYPE = 0
CLASSIFICATION_TYPE = U
NORAD_CAT_ID   = 67014
ELEMENT_SET_NO = 999
REV_AT_EPOCH   = 197
BSTAR          = -.92791E-2
MEAN_MOTION_DOT = -.1670285E-1
MEAN_MOTION_DDOT = 0

CCSDS_OMM_VERS = 2.0
CREATION_DATE  = 
ORIGINATOR     = 

OBJECT_NAME    = STARLINK-36093
OBJECT_ID      = 2025-293N
CENTER_NAME    = EARTH
REF_FRAME      = TEME
TIME_SYSTEM    = UTC
MEAN_ELEMENT_THEORY = SGP/SGP4

EPOCH          = 2025-12-23T22:00:01.999584
MEAN_MOTION    = 15.82243904
ECCENTRICITY   = .00036973
INCLINATION    = 69.9928
RA_OF_ASC_NODE = 291.3613
ARG_OF_PERICENTER = 262.4006
MEAN_ANOMALY   = 49.3235

EPHEMERIS_TYPE = 0
CLASSIFICATION_TYPE = U
NORAD_CAT_ID   = 67015
ELEMENT_SET_NO = 999
REV_AT_EPOCH   = 191
BSTAR          = -.9320565E-2
MEAN_MOTION_DOT = -.1674301E-1
MEAN_MOTION_DDOT = 0

CCSDS_OMM_VERS = 2.0
CREATION_DATE  = 
ORIGINATOR     = 

OBJECT_NAME    = STARLINK-36120
OBJECT_ID      = 2025-293P
CENTER_NAME    = EARTH
REF_FRAME      = TEME
TIME_SYSTEM    = UTC
MEAN_ELEMENT_THEORY = SGP/SGP4

EPOCH          = 2025-12-23T22:00:01.999584
MEAN_MOTION    = 15.82263314
ECCENTRICITY   = .00038833
INCLINATION    = 69.9930
RA_OF_ASC_NODE = 291.3645
ARG_OF_PERICENTER = 264.4950
MEAN_ANOMALY   = 44.6691

EPHEMERIS_TYPE = 0
CLASSIFICATION_TYPE = U
NORAD_CAT_ID   = 67016
ELEMENT_SET_NO = 999
REV_AT_EPOCH   = 191
BSTAR          = -.92856141E-2
MEAN_MOTION_DOT = -.1670397E-1
MEAN_MOTION_DDOT = 0

CCSDS_OMM_VERS = 2.0
CREATION_DATE  = 
ORIGINATOR     = 

OBJECT_NAME    = STARLINK-35498
OBJECT_ID      = 2025-293Q
CENTER_NAME    = EARTH
REF_FRAME      = TEME
TIME_SYSTEM    = UTC
MEAN_ELEMENT_THEORY = SGP/SGP4

EPOCH          = 2025-12-23T22:00:01.999584
MEAN_MOTION    = 15.82226717
ECCENTRICITY   = .0003896
INCLINATION    = 69.9926
RA_OF_ASC_NODE = 291.3582
ARG_OF_PERICENTER = 264.1430
MEAN_ANOMALY   = 49.9956

EPHEMERIS_TYPE = 0
CLASSIFICATION_TYPE = U
NORAD_CAT_ID   = 67017
ELEMENT_SET_NO = 999
REV_AT_EPOCH   = 210
BSTAR          = -.93126304E-2
MEAN_MOTION_DOT = -.1672122E-1
MEAN_MOTION_DDOT = 0

CCSDS_OMM_VERS = 2.0
CREATION_DATE  = 
ORIGINATOR     = 

OBJECT_NAME    = STARLINK-36106
OBJECT_ID      = 2025-293R
CENTER_NAME    = EARTH
REF_FRAME      = TEME
TIME_SYSTEM    = UTC
MEAN_ELEMENT_THEORY = SGP/SGP4

EPOCH          = 2025-12-23T22:00:01.999584
MEAN_MOTION    = 15.82210891
ECCENTRICITY   = .00039727
INCLINATION    = 69.9924
RA_OF_ASC_NODE = 291.3550
ARG_OF_PERICENTER = 264.8183
MEAN_ANOMALY   = 51.7521

EPHEMERIS_TYPE = 0
CLASSIFICATION_TYPE = U
NORAD_CAT_ID   = 67018
ELEMENT_SET_NO = 999
REV_AT_EPOCH   = 202
BSTAR          = -.93486572E-2
MEAN_MOTION_DOT = -.1676733E-1
MEAN_MOTION_DDOT = 0

CCSDS_OMM_VERS = 2.0
CREATION_DATE  = 
ORIGINATOR     = 

OBJECT_NAME    = STARLINK-35688
OBJECT_ID      = 2025-293S
CENTER_NAME    = EARTH
REF_FRAME      = TEME
TIME_SYSTEM    = UTC
MEAN_ELEMENT_THEORY = SGP/SGP4

EPOCH          = 2025-12-23T22:00:01.999584
MEAN_MOTION    = 15.82198608
ECCENTRICITY   = .00038314
INCLINATION    = 69.9922
RA_OF_ASC_NODE = 291.3520
ARG_OF_PERICENTER = 263.4953
MEAN_ANOMALY   = 55.3717

EPHEMERIS_TYPE = 0
CLASSIFICATION_TYPE = U
NORAD_CAT_ID   = 67019
ELEMENT_SET_NO = 999
REV_AT_EPOCH   = 210
BSTAR          = -.93614355E-2
MEAN_MOTION_DOT = -.1677711E-1
MEAN_MOTION_DDOT = 0

CCSDS_OMM_VERS = 2.0
CREATION_DATE  = 
ORIGINATOR     = 

OBJECT_NAME    = STARLINK-36172
OBJECT_ID      = 2025-293T
CENTER_NAME    = EARTH
REF_FRAME      = TEME
TIME_SYSTEM    = UTC
MEAN_ELEMENT_THEORY = SGP/SGP4

EPOCH          = 2025-12-23T22:00:01.999584
MEAN_MOTION    = 15.82167412
ECCENTRICITY   = .00040234
INCLINATION    = 69.9922
RA_OF_ASC_NODE = 291.3489
ARG_OF_PERICENTER = 267.8044
MEAN_ANOMALY   = 53.8489

EPHEMERIS_TYPE = 0
CLASSIFICATION_TYPE = U
NORAD_CAT_ID   = 67020
ELEMENT_SET_NO = 999
REV_AT_EPOCH   = 202
BSTAR          = -.93611659E-2
MEAN_MOTION_DOT = -.1675759E-1
MEAN_MOTION_DDOT = 0

CCSDS_OMM_VERS = 2.0
CREATION_DATE  = 
ORIGINATOR     = 

OBJECT_NAME    = STARLINK-36184
OBJECT_ID      = 2025-293U
CENTER_NAME    = EARTH
REF_FRAME      = TEME
TIME_SYSTEM    = UTC
MEAN_ELEMENT_THEORY = SGP/SGP4

EPOCH          = 2025-12-23T22:00:01.999584
MEAN_MOTION    = 15.82145634
ECCENTRICITY   = .00039577
INCLINATION    = 69.9925
RA_OF_ASC_NODE = 291.3457
ARG_OF_PERICENTER = 267.2226
MEAN_ANOMALY   = 57.0103

EPHEMERIS_TYPE = 0
CLASSIFICATION_TYPE = U
NORAD_CAT_ID   = 67021
ELEMENT_SET_NO = 999
REV_AT_EPOCH   = 202
BSTAR          = -.93816438E-2
MEAN_MOTION_DOT = -.1677365E-1
MEAN_MOTION_DDOT = 0

CCSDS_OMM_VERS = 2.0
CREATION_DATE  = 
ORIGINATOR     = 

OBJECT_NAME    = STARLINK-36209
OBJECT_ID      = 2025-293V
CENTER_NAME    = EARTH
REF_FRAME      = TEME
TIME_SYSTEM    = UTC
MEAN_ELEMENT_THEORY = SGP/SGP4

EPOCH          = 2025-12-23T22:00:01.999584
MEAN_MOTION    = 15.82110661
ECCENTRICITY   = .00037773
INCLINATION    = 69.9923
RA_OF_ASC_NODE = 291.3424
ARG_OF_PERICENTER = 268.3823
MEAN_ANOMALY   = 58.7833

EPHEMERIS_TYPE = 0
CLASSIFICATION_TYPE = U
NORAD_CAT_ID   = 67022
ELEMENT_SET_NO = 999
REV_AT_EPOCH   = 202
BSTAR          = -.93804473E-2
MEAN_MOTION_DOT = -.1674576E-1
MEAN_MOTION_DDOT = 0

CCSDS_OMM_VERS = 2.0
CREATION_DATE  = 
ORIGINATOR     = 

OBJECT_NAME    = STARLINK-36191
OBJECT_ID      = 2025-293W
CENTER_NAME    = EARTH
REF_FRAME      = TEME
TIME_SYSTEM    = UTC
MEAN_ELEMENT_THEORY = SGP/SGP4

EPOCH          = 2025-12-23T22:00:01.999584
MEAN_MOTION    = 15.82089890
ECCENTRICITY   = .00038197
INCLINATION    = 69.9921
RA_OF_ASC_NODE = 291.3388
ARG_OF_PERICENTER = 264.3337
MEAN_ANOMALY   = 65.3189

EPHEMERIS_TYPE = 0
CLASSIFICATION_TYPE = U
NORAD_CAT_ID   = 67023
ELEMENT_SET_NO = 999
REV_AT_EPOCH   = 191
BSTAR          = -.93640042E-2
MEAN_MOTION_DOT = -.1670664E-1
MEAN_MOTION_DDOT = 0

CCSDS_OMM_VERS = 2.0
CREATION_DATE  = 
ORIGINATOR     = 

OBJECT_NAME    = STARLINK-36192
OBJECT_ID      = 2025-293X
CENTER_NAME    = EARTH
REF_FRAME      = TEME
TIME_SYSTEM    = UTC
MEAN_ELEMENT_THEORY = SGP/SGP4

EPOCH          = 2025-12-23T22:00:01.999584
MEAN_MOTION    = 15.82062649
ECCENTRICITY   = .0003873
INCLINATION    = 69.9923
RA_OF_ASC_NODE = 291.3359
ARG_OF_PERICENTER = 266.1126
MEAN_ANOMALY   = 66.2971

EPHEMERIS_TYPE = 0
CLASSIFICATION_TYPE = U
NORAD_CAT_ID   = 67024
ELEMENT_SET_NO = 999
REV_AT_EPOCH   = 202
BSTAR          = -.94020267E-2
MEAN_MOTION_DOT = -.1674742E-1
MEAN_MOTION_DDOT = 0

