STARLINK-35856          
1 67013U 25293L   25357.91668981 -.01670729  00000+0 -92753-2 0  9999
2 67013  69.9928 291.3699 0003732 262.5998  41.7849 15.82294306  1911
STARLINK-36207          
1 67014U 25293M   25357.91668981 -.01670285  00000+0 -92791-2 0  9999
2 67014  69.9933 291.3675 0003887 264.6641  42.1872 15.82276493  1975
STARLINK-36093          
1 67015U 25293N   25357.91668981 -.01674301  00000+0 -93206-2 0  9995
2 67015  69.9928 291.3613 0003697 262.4006  49.3235 15.82243904  1919
STARLINK-36120          
1 67016U 25293P   25357.91668981 -.01670397  00000+0 -92856-2 0  9997
2 67016  69.9930 291.3645 0003883 264.4950  44.6691 15.82263314  1916
STARLINK-35498          
1 67017U 25293Q   25357.91668981 -.01672122  00000+0 -93126-2 0  9997
2 67017  69.9926 291.3582 0003896 264.1430  49.9956 15.82226717  2106
STARLINK-36106          
1 67018U 25293R   25357.91668981 -.01676733  00000+0 -93487-2 0  9990
2 67018  69.9924 291.3550 0003972 264.8183  51.7521 15.82210891  2023
STARLINK-35688          
1 67019U 25293S   25357.91668981 -.01677711  00000+0 -93614-2 0  9990
2 67019  69.9922 291.3520 0003831 263.4953  55.3717 15.82198608  2100
STARLINK-36172          
1 67020U 25293T   25357.91668981 -.01675759  00000+0 -93612-2 0  9990
2 67020  69.9922 291.3489 0004023 267.8044  53.8489 15.82167412  2028
STARLINK-36184          
1 67021U 25293U   25357.91668981 -.01677365  00000+0 -93816-2 0  9992
2 67021  69.9925 291.3457 0003957 267.2226  57.0103 15.82145634  2029
STARLINK-36209          
1 67022U 25293V   25357.91668981 -.01674576  00000+0 -93804-2 0  9991
2 67022  69.9923 291.3424 0003777 268.3823  58.7833 15.82110661  2027
STARLINK-36191          
1 67023U 25293W   25357.91668981 -.01670664  00000+0 -93640-2 0  9994
2 67023  69.9921 291.3388 0003819 264.3337  65.3189 15.82089890  1912
STARLINK-36192          
1 67024U 25293X   25357.91668981 -.01674742  00000+0 -94020-2 0  9999
2 67024  69.9923 291.3359 0003873 266.1126  66.2971 15.82062649  2024
